INMARSAT 4-F2 (SOUTHPA*)
1 28899U 05044A   26117.21170742 -.00000268  00000+0  00000+0 0  9995
2 28899   5.0317  43.7613 0002771 350.4086  40.6976  1.00270882 75014
GSAT-8 (GAGAN/PRN 127)  
1 37605U 11022A   26117.08879111  .00000076  00000+0  00000+0 0  9990
2 37605   2.0009  82.4145 0004687 227.4448 352.2573  1.00270514 52705
LUCH 5A (SDCM/PRN 140)  
1 37951U 11074B   26117.10739284 -.00000054  00000+0  00000+0 0  9997
2 37951   8.6271  74.5436 0002752 305.3035  40.8405  1.00273004 52538
SES-5 (EGNOS/PRN 136)   
1 38652U 12036A   26117.22267126  .00000024  00000+0  00000+0 0  9995
2 38652   0.0599 300.3439 0001946  94.9629 265.0472  1.00271777 43948
GSAT-10 (GAGAN/PRN 128) 
1 38779U 12051B   26117.00950125 -.00000175  00000+0  00000+0 0  9994
2 38779   0.0226 263.3140 0007013 178.6142 219.4606  1.00270014 49584
LUCH 5B (SDCM/PRN 125)  
1 38977U 12061A   26117.06124145 -.00000143  00000+0  00000+0 0  9991
2 38977  10.3768  50.3818 0001718 214.0239 316.4236  1.00271707 49096
ASTRA 5B (EGNOS/PRN 123)
1 39617U 14011B   26117.21155843  .00000127  00000+0  00000+0 0  9997
2 39617   0.0670 308.1483 0002671  66.3516 300.3554  1.00269971 44150
LUCH 5V (SDCM/PRN 141)  
1 39727U 14023A   26116.95997187 -.00000276  00000+0  00000+0 0  9993
2 39727   5.0096  70.2468 0002257 339.3730 245.6892  1.00271811 43847
GSAT-15 (GAGAN/PRN 139) 
1 41028U 15065A   26117.20233531 -.00000268  00000+0  00000+0 0  9993
2 41028   0.0676 257.0168 0003747 145.5630 338.9662  1.00271901 38289
EUTELSAT 117 WEST B (W*)
1 41589U 16038B   26117.04122138 -.00000022  00000+0  00000+0 0  9996
2 41589   0.0118  96.1942 0000042  27.7845 348.9074  1.00272030 36154
SES-15 (WAAS/PRN 133)   
1 42709U 17026A   26117.24781884  .00000050  00000+0  00000+0 0  9990
2 42709   0.0244 328.8560 0000651  43.7721 162.6676  1.00270096  6928
QZS-2 (QZSS/PRN 194)    
1 42738U 17028A   26116.23428738 -.00000266  00000+0  00000+0 0  9998
2 42738  39.5095 243.9120 0740318 270.8047 281.9812  1.00247520  7109
QZS-3 (QZSS/PRN 199)    
1 42917U 17048A   26117.23239168 -.00000358  00000+0  00000+0 0  9999
2 42917   0.0516 180.1623 0001370 205.0588  40.6963  1.00270802 31740
QZS-4 (QZSS/PRN 195)    
1 42965U 17062A   26112.66690654 -.00000326  00000+0  00000+0 0  9996
2 42965  40.1416 344.1915 0746625 270.8161 335.9811  1.00266456 31246
BEIDOU-3 G1 (PRN 130)   
1 43683U 18085A   26117.33703758 -.00000117  00000+0  00000+0 0  9997
2 43683   2.9474  98.7204 0007400 333.3641  64.4946  1.00265526 27555
EUTELSAT 5 WEST B (EGN*)
1 44624U 19067A   26117.22822620 -.00000052  00000+0  00000+0 0  9990
2 44624   0.0693  11.9053 0003183  24.7405 255.7273  1.00271585 23922
BEIDOU-3 G2 (PRN 144)   
1 45344U 20017A   26117.00898125 -.00000149  00000+0  00000+0 0  9993
2 45344   2.7634  46.5387 0002550 348.2319 263.5062  1.00271422 22747
BEIDOU-3 G3 (PRN 143)   
1 45807U 20040A   26117.01504794 -.00000362  00000+0  00000+0 0  9997
2 45807   2.3237  67.2979 0003763 329.8404 293.8276  1.00270278 21559
GALAXY 30 (WAAS/PRN 135)
1 46114U 20056C   26117.03966138  .00000000  00000+0  00000+0 0  9990
2 46114   0.0126 236.3465 0002527 172.8147  55.1468  1.00271333 20788
QZS-1R (QZSS/PRN 196)   
1 49336U 21096A   26117.22127906 -.00000237  00000+0  00000+0 0  9990
2 49336  37.3604  80.3327 0751435 270.8549  79.3818  1.00272987 16495
QZS-6 (QZSS/PRN 200)    
1 62876U 25023A   26117.19191774  .00000000  00000+0  00000+0 0  9995
2 62876   0.0139  72.0745 0002713 334.0586 328.6256  1.00271474  4441
